[{"OBJECT_NAME":"WESTAR 1","OBJECT_ID":"1974-022A","EPOCH":"2026-04-26T13:49:39.455904","MEAN_MOTION":0.99890571,"ECCENTRICITY":0.0005906,"INCLINATION":7.2249,"RA_OF_ASC_NODE":298.3875,"ARG_OF_PERICENTER":47.3523,"MEAN_ANOMALY":130.7466,"EPHEMERIS_TYPE":0,"CLASSIFICATION_TYPE":"U","NORAD_CAT_ID":7250,"ELEMENT_SET_NO":999,"REV_AT_EPOCH":12181,"BSTAR":0,"MEAN_MOTION_DOT":9.2e-7,"MEAN_MOTION_DDOT":0},{"OBJECT_NAME":"TITAN 3C TRANSTAGE R/B","OBJECT_ID":"1974-039C","EPOCH":"2026-04-26T22:37:22.774944","MEAN_MOTION":1.00722764,"ECCENTRICITY":0.00334801,"INCLINATION":2.8742,"RA_OF_ASC_NODE":261.1376,"ARG_OF_PERICENTER":83.6677,"MEAN_ANOMALY":245.7431,"EPHEMERIS_TYPE":0,"CLASSIFICATION_TYPE":"U","NORAD_CAT_ID":7324,"ELEMENT_SET_NO":999,"REV_AT_EPOCH":11910,"BSTAR":0,"MEAN_MOTION_DOT":1.11e-6,"MEAN_MOTION_DDOT":0},{"OBJECT_NAME":"SL-6 R/B(2)","OBJECT_ID":"1974-026E","EPOCH":"2026-04-16T22:55:52.726368","MEAN_MOTION":2.06585704,"ECCENTRICITY":0.71040463,"INCLINATION":64.1313,"RA_OF_ASC_NODE":302.2819,"ARG_OF_PERICENTER":269.1994,"MEAN_ANOMALY":16.2621,"EPHEMERIS_TYPE":0,"CLASSIFICATION_TYPE":"U","NORAD_CAT_ID":7373,"ELEMENT_SET_NO":999,"REV_AT_EPOCH":38567,"BSTAR":0,"MEAN_MOTION_DOT":-3.52e-6,"MEAN_MOTION_DDOT":0},{"OBJECT_NAME":"MOLNIYA 2-10","OBJECT_ID":"1974-056A","EPOCH":"2026-04-22T23:43:43.305888","MEAN_MOTION":2.01161569,"ECCENTRICITY":0.67324175,"INCLINATION":65.3138,"RA_OF_ASC_NODE":305.8782,"ARG_OF_PERICENTER":269.9727,"MEAN_ANOMALY":19.0897,"EPHEMERIS_TYPE":0,"CLASSIFICATION_TYPE":"U","NORAD_CAT_ID":7376,"ELEMENT_SET_NO":999,"REV_AT_EPOCH":37862,"BSTAR":0,"MEAN_MOTION_DOT":-1.223e-5,"MEAN_MOTION_DDOT":0},{"OBJECT_NAME":"MOLNIYA 1-S","OBJECT_ID":"1974-060A","EPOCH":"2026-04-26T22:47:25.721664","MEAN_MOTION":1.00310693,"ECCENTRICITY":0.00078572,"INCLINATION":1.5049,"RA_OF_ASC_NODE":252.6702,"ARG_OF_PERICENTER":280.46,"MEAN_ANOMALY":125.9568,"EPHEMERIS_TYPE":0,"CLASSIFICATION_TYPE":"U","NORAD_CAT_ID":7392,"ELEMENT_SET_NO":999,"REV_AT_EPOCH":13366,"BSTAR":0,"MEAN_MOTION_DOT":-3.34e-6,"MEAN_MOTION_DDOT":0},{"OBJECT_NAME":"WESTAR 2","OBJECT_ID":"1974-075A","EPOCH":"2026-04-26T13:08:58.357824","MEAN_MOTION":0.99847732,"ECCENTRICITY":0.0002225,"INCLINATION":7.3751,"RA_OF_ASC_NODE":300.101,"ARG_OF_PERICENTER":204.6844,"MEAN_ANOMALY":179.4104,"EPHEMERIS_TYPE":0,"CLASSIFICATION_TYPE":"U","NORAD_CAT_ID":7466,"ELEMENT_SET_NO":999,"REV_AT_EPOCH":13714,"BSTAR":0,"MEAN_MOTION_DOT":-1.66e-6,"MEAN_MOTION_DDOT":0},{"OBJECT_NAME":"INTELSAT 4-F8","OBJECT_ID":"1974-093A","EPOCH":"2026-04-26T21:57:31.466592","MEAN_MOTION":0.99792309,"ECCENTRICITY":0.00018776,"INCLINATION":8.0787,"RA_OF_ASC_NODE":304.914,"ARG_OF_PERICENTER":197.3809,"MEAN_ANOMALY":8.2782,"EPHEMERIS_TYPE":0,"CLASSIFICATION_TYPE":"U","NORAD_CAT_ID":7544,"ELEMENT_SET_NO":999,"REV_AT_EPOCH":12469,"BSTAR":0,"MEAN_MOTION_DOT":-2.96e-6,"MEAN_MOTION_DDOT":0},{"OBJECT_NAME":"ATLAS CENTAUR R/B","OBJECT_ID":"1974-093B","EPOCH":"2026-04-25T20:36:34.695360","MEAN_MOTION":2.21277238,"ECCENTRICITY":0.71984785,"INCLINATION":25.999,"RA_OF_ASC_NODE":70.7948,"ARG_OF_PERICENTER":291.1683,"MEAN_ANOMALY":9.8165,"EPHEMERIS_TYPE":0,"CLASSIFICATION_TYPE":"U","NORAD_CAT_ID":7545,"ELEMENT_SET_NO":999,"REV_AT_EPOCH":28574,"BSTAR":0.00047699031,"MEAN_MOTION_DOT":-9.8e-7,"MEAN_MOTION_DDOT":0},{"OBJECT_NAME":"SKYNET 2B","OBJECT_ID":"1974-094A","EPOCH":"2026-04-26T20:46:45.982272","MEAN_MOTION":1.00392693,"ECCENTRICITY":0.00016254,"INCLINATION":3.7007,"RA_OF_ASC_NODE":281.1879,"ARG_OF_PERICENTER":179.889,"MEAN_ANOMALY":142.511,"EPHEMERIS_TYPE":0,"CLASSIFICATION_TYPE":"U","NORAD_CAT_ID":7547,"ELEMENT_SET_NO":999,"REV_AT_EPOCH":12424,"BSTAR":0,"MEAN_MOTION_DOT":-1.53e-6,"MEAN_MOTION_DDOT":0},{"OBJECT_NAME":"SYMPHONIE 1","OBJECT_ID":"1974-101A","EPOCH":"2026-04-26T20:19:33.590784","MEAN_MOTION":0.99963456,"ECCENTRICITY":0.00029329,"INCLINATION":4.7073,"RA_OF_ASC_NODE":277.6853,"ARG_OF_PERICENTER":48.9526,"MEAN_ANOMALY":174.8042,"EPHEMERIS_TYPE":0,"CLASSIFICATION_TYPE":"U","NORAD_CAT_ID":7578,"ELEMENT_SET_NO":999,"REV_AT_EPOCH":11668,"BSTAR":0,"MEAN_MOTION_DOT":-2.07e-6,"MEAN_MOTION_DDOT":0},{"OBJECT_NAME":"COSMOS 706","OBJECT_ID":"1975-007A","EPOCH":"2026-04-24T23:27:38.685312","MEAN_MOTION":2.00622448,"ECCENTRICITY":0.6862525,"INCLINATION":63.9521,"RA_OF_ASC_NODE":159.3278,"ARG_OF_PERICENTER":3.1755,"MEAN_ANOMALY":359.7327,"EPHEMERIS_TYPE":0,"CLASSIFICATION_TYPE":"U","NORAD_CAT_ID":7625,"ELEMENT_SET_NO":999,"REV_AT_EPOCH":23537,"BSTAR":0,"MEAN_MOTION_DOT":-5.48e-6,"MEAN_MOTION_DDOT":0},{"OBJECT_NAME":"SMS 2","OBJECT_ID":"1975-011A","EPOCH":"2026-04-26T22:17:08.669184","MEAN_MOTION":0.99513818,"ECCENTRICITY":0.00118825,"INCLINATION":5.5998,"RA_OF_ASC_NODE":283.865,"ARG_OF_PERICENTER":280.5046,"MEAN_ANOMALY":357.2106,"EPHEMERIS_TYPE":0,"CLASSIFICATION_TYPE":"U","NORAD_CAT_ID":7648,"ELEMENT_SET_NO":999,"REV_AT_EPOCH":13516,"BSTAR":0,"MEAN_MOTION_DOT":-6.8e-7,"MEAN_MOTION_DDOT":0},{"OBJECT_NAME":"MOLNIYA 1-29","OBJECT_ID":"1975-036A","EPOCH":"2026-04-25T22:03:01.549152","MEAN_MOTION":2.00619467,"ECCENTRICITY":0.69015847,"INCLINATION":64.0225,"RA_OF_ASC_NODE":67.1273,"ARG_OF_PERICENTER":279.2291,"MEAN_ANOMALY":14.6462,"EPHEMERIS_TYPE":0,"CLASSIFICATION_TYPE":"U","NORAD_CAT_ID":7780,"ELEMENT_SET_NO":999,"REV_AT_EPOCH":37387,"BSTAR":-0.016909811,"MEAN_MOTION_DOT":2.19e-6,"MEAN_MOTION_DDOT":0},{"OBJECT_NAME":"ANIK A3 (TELESAT 3)","OBJECT_ID":"1975-038A","EPOCH":"2026-04-26T17:07:50.020896","MEAN_MOTION":1.00049267,"ECCENTRICITY":0.00019308,"INCLINATION":7.8096,"RA_OF_ASC_NODE":303.1374,"ARG_OF_PERICENTER":58.0845,"MEAN_ANOMALY":140.8652,"EPHEMERIS_TYPE":0,"CLASSIFICATION_TYPE":"U","NORAD_CAT_ID":7790,"ELEMENT_SET_NO":999,"REV_AT_EPOCH":12944,"BSTAR":0,"MEAN_MOTION_DOT":1.04e-6,"MEAN_MOTION_DDOT":0},{"OBJECT_NAME":"SL-6 R/B(2)","OBJECT_ID":"1975-036D","EPOCH":"2026-04-22T11:40:32.062944","MEAN_MOTION":1.96860844,"ECCENTRICITY":0.6682174,"INCLINATION":63.7663,"RA_OF_ASC_NODE":148.7257,"ARG_OF_PERICENTER":283.3809,"MEAN_ANOMALY":14.8426,"EPHEMERIS_TYPE":0,"CLASSIFICATION_TYPE":"U","NORAD_CAT_ID":7800,"ELEMENT_SET_NO":999,"REV_AT_EPOCH":36609,"BSTAR":0,"MEAN_MOTION_DOT":-6.17e-6,"MEAN_MOTION_DDOT":0},{"OBJECT_NAME":"ATLAS CENTAUR R/B","OBJECT_ID":"1975-042B","EPOCH":"2026-04-25T23:28:02.324352","MEAN_MOTION":2.2115661,"ECCENTRICITY":0.71963722,"INCLINATION":25.5717,"RA_OF_ASC_NODE":271.0812,"ARG_OF_PERICENTER":264.8756,"MEAN_ANOMALY":17.182,"EPHEMERIS_TYPE":0,"CLASSIFICATION_TYPE":"U","NORAD_CAT_ID":7902,"ELEMENT_SET_NO":999,"REV_AT_EPOCH":27985,"BSTAR":0.0010001547,"MEAN_MOTION_DOT":-1.27e-6,"MEAN_MOTION_DDOT":0},{"OBJECT_NAME":"ATLAS AGENA R/B","OBJECT_ID":"1975-055B","EPOCH":"2026-04-26T04:55:13.590624","MEAN_MOTION":1.02090885,"ECCENTRICITY":0.11906525,"INCLINATION":9.6915,"RA_OF_ASC_NODE":234.3297,"ARG_OF_PERICENTER":141.6915,"MEAN_ANOMALY":227.3664,"EPHEMERIS_TYPE":0,"CLASSIFICATION_TYPE":"U","NORAD_CAT_ID":7964,"ELEMENT_SET_NO":999,"REV_AT_EPOCH":2616,"BSTAR":0,"MEAN_MOTION_DOT":-1.84e-6,"MEAN_MOTION_DDOT":0}]
